[{"OBJECT_NAME":"HULIANWANG DIGUI-97","OBJECT_ID":"2025-258B","EPOCH":"2026-03-06T04:02:01.621248","MEAN_MOTION":13.29332494,"ECCENTRICITY":4.286e-5,"INCLINATION":50.0016,"RA_OF_ASC_NODE":305.3786,"ARG_OF_PERICENTER":100.0805,"MEAN_ANOMALY":260.0116,"EPHEMERIS_TYPE":0,"CLASSIFICATION_TYPE":"U","NORAD_CAT_ID":66413,"ELEMENT_SET_NO":999,"REV_AT_EPOCH":1602,"BSTAR":0.00015000036,"MEAN_MOTION_DOT":-5.4e-7,"MEAN_MOTION_DDOT":0},{"OBJECT_NAME":"HULIANWANG DIGUI-98","OBJECT_ID":"2025-258C","EPOCH":"2026-03-06T05:38:13.032384","MEAN_MOTION":13.29334117,"ECCENTRICITY":4.784e-5,"INCLINATION":50.0053,"RA_OF_ASC_NODE":305.1076,"ARG_OF_PERICENTER":111.9856,"MEAN_ANOMALY":248.1067,"EPHEMERIS_TYPE":0,"CLASSIFICATION_TYPE":"U","NORAD_CAT_ID":66414,"ELEMENT_SET_NO":999,"REV_AT_EPOCH":1603,"BSTAR":0.00015396339,"MEAN_MOTION_DOT":-5.3e-7,"MEAN_MOTION_DDOT":0},{"OBJECT_NAME":"HULIANWANG DIGUI-99","OBJECT_ID":"2025-258D","EPOCH":"2026-03-06T04:50:08.616768","MEAN_MOTION":13.29331588,"ECCENTRICITY":3.621e-5,"INCLINATION":50.0051,"RA_OF_ASC_NODE":304.9282,"ARG_OF_PERICENTER":92.9493,"MEAN_ANOMALY":267.1421,"EPHEMERIS_TYPE":0,"CLASSIFICATION_TYPE":"U","NORAD_CAT_ID":66415,"ELEMENT_SET_NO":999,"REV_AT_EPOCH":1602,"BSTAR":0.00014978975,"MEAN_MOTION_DOT":-5.5e-7,"MEAN_MOTION_DDOT":0},{"OBJECT_NAME":"HULIANWANG DIGUI-100","OBJECT_ID":"2025-258E","EPOCH":"2026-03-06T05:26:11.712480","MEAN_MOTION":13.29334633,"ECCENTRICITY":3.489e-5,"INCLINATION":50.0055,"RA_OF_ASC_NODE":305.0665,"ARG_OF_PERICENTER":92.3327,"MEAN_ANOMALY":267.7585,"EPHEMERIS_TYPE":0,"CLASSIFICATION_TYPE":"U","NORAD_CAT_ID":66416,"ELEMENT_SET_NO":999,"REV_AT_EPOCH":1604,"BSTAR":0.00015524342,"MEAN_MOTION_DOT":-5.2e-7,"MEAN_MOTION_DDOT":0},{"OBJECT_NAME":"HULIANWANG DIGUI-101","OBJECT_ID":"2025-258F","EPOCH":"2026-03-06T05:14:11.218560","MEAN_MOTION":13.29332783,"ECCENTRICITY":3.798e-5,"INCLINATION":50.0005,"RA_OF_ASC_NODE":304.9642,"ARG_OF_PERICENTER":87.2811,"MEAN_ANOMALY":272.8104,"EPHEMERIS_TYPE":0,"CLASSIFICATION_TYPE":"U","NORAD_CAT_ID":66417,"ELEMENT_SET_NO":999,"REV_AT_EPOCH":1604,"BSTAR":0.00014126199,"MEAN_MOTION_DOT":-5.8e-7,"MEAN_MOTION_DDOT":0},{"OBJECT_NAME":"HULIANWANG DIGUI-102","OBJECT_ID":"2025-258G","EPOCH":"2026-03-06T04:38:03.280128","MEAN_MOTION":13.29334643,"ECCENTRICITY":3.857e-5,"INCLINATION":50.0019,"RA_OF_ASC_NODE":304.8447,"ARG_OF_PERICENTER":105.0803,"MEAN_ANOMALY":255.0112,"EPHEMERIS_TYPE":0,"CLASSIFICATION_TYPE":"U","NORAD_CAT_ID":66418,"ELEMENT_SET_NO":999,"REV_AT_EPOCH":1603,"BSTAR":0.00014113602,"MEAN_MOTION_DOT":-5.9e-7,"MEAN_MOTION_DDOT":0},{"OBJECT_NAME":"HULIANWANG DIGUI-103","OBJECT_ID":"2025-258H","EPOCH":"2026-03-06T04:26:03.384096","MEAN_MOTION":13.29333683,"ECCENTRICITY":3.156e-5,"INCLINATION":50.0012,"RA_OF_ASC_NODE":304.7933,"ARG_OF_PERICENTER":87.7226,"MEAN_ANOMALY":272.3683,"EPHEMERIS_TYPE":0,"CLASSIFICATION_TYPE":"U","NORAD_CAT_ID":66419,"ELEMENT_SET_NO":999,"REV_AT_EPOCH":1603,"BSTAR":0.00015570272,"MEAN_MOTION_DOT":-5.2e-7,"MEAN_MOTION_DDOT":0},{"OBJECT_NAME":"HULIANWANG DIGUI-104","OBJECT_ID":"2025-258J","EPOCH":"2026-03-06T04:14:02.960160","MEAN_MOTION":13.29333053,"ECCENTRICITY":4.134e-5,"INCLINATION":50.0029,"RA_OF_ASC_NODE":304.7725,"ARG_OF_PERICENTER":109.8769,"MEAN_ANOMALY":250.2147,"EPHEMERIS_TYPE":0,"CLASSIFICATION_TYPE":"U","NORAD_CAT_ID":66420,"ELEMENT_SET_NO":999,"REV_AT_EPOCH":1602,"BSTAR":0.00014223014,"MEAN_MOTION_DOT":-5.8e-7,"MEAN_MOTION_DDOT":0},{"OBJECT_NAME":"HULIANWANG DIGUI-105","OBJECT_ID":"2025-285A","EPOCH":"2026-03-06T06:07:55.701984","MEAN_MOTION":13.29330783,"ECCENTRICITY":8.8e-6,"INCLINATION":50.0045,"RA_OF_ASC_NODE":155.3803,"ARG_OF_PERICENTER":306.0208,"MEAN_ANOMALY":54.0656,"EPHEMERIS_TYPE":0,"CLASSIFICATION_TYPE":"U","NORAD_CAT_ID":66915,"ELEMENT_SET_NO":999,"REV_AT_EPOCH":1236,"BSTAR":8.8795147e-5,"MEAN_MOTION_DOT":-8.3e-7,"MEAN_MOTION_DDOT":0},{"OBJECT_NAME":"HULIANWANG DIGUI-106","OBJECT_ID":"2025-285B","EPOCH":"2026-03-04T19:39:18.815328","MEAN_MOTION":13.29477796,"ECCENTRICITY":0.00070993,"INCLINATION":50.0043,"RA_OF_ASC_NODE":160.4766,"ARG_OF_PERICENTER":27.2323,"MEAN_ANOMALY":332.8921,"EPHEMERIS_TYPE":0,"CLASSIFICATION_TYPE":"U","NORAD_CAT_ID":66916,"ELEMENT_SET_NO":999,"REV_AT_EPOCH":1217,"BSTAR":-1.4099124,"MEAN_MOTION_DOT":-0.00628381,"MEAN_MOTION_DDOT":0},{"OBJECT_NAME":"HULIANWANG DIGUI-107","OBJECT_ID":"2025-285C","EPOCH":"2026-03-06T05:43:52.691520","MEAN_MOTION":13.29330457,"ECCENTRICITY":3.51e-6,"INCLINATION":50.0022,"RA_OF_ASC_NODE":155.2753,"ARG_OF_PERICENTER":335.5149,"MEAN_ANOMALY":24.5721,"EPHEMERIS_TYPE":0,"CLASSIFICATION_TYPE":"U","NORAD_CAT_ID":66917,"ELEMENT_SET_NO":999,"REV_AT_EPOCH":1236,"BSTAR":6.9673612e-5,"MEAN_MOTION_DOT":-9.2e-7,"MEAN_MOTION_DDOT":0},{"OBJECT_NAME":"HULIANWANG DIGUI-108","OBJECT_ID":"2025-285D","EPOCH":"2026-03-06T07:20:05.718336","MEAN_MOTION":13.29331018,"ECCENTRICITY":3.16e-6,"INCLINATION":50.0043,"RA_OF_ASC_NODE":154.9794,"ARG_OF_PERICENTER":323.2437,"MEAN_ANOMALY":36.8433,"EPHEMERIS_TYPE":0,"CLASSIFICATION_TYPE":"U","NORAD_CAT_ID":66918,"ELEMENT_SET_NO":999,"REV_AT_EPOCH":1237,"BSTAR":0.00010434397,"MEAN_MOTION_DOT":-7.6e-7,"MEAN_MOTION_DDOT":0},{"OBJECT_NAME":"HULIANWANG DIGUI-109","OBJECT_ID":"2025-285E","EPOCH":"2026-03-06T07:08:04.090848","MEAN_MOTION":13.29330907,"ECCENTRICITY":1.0e-6,"INCLINATION":50.0067,"RA_OF_ASC_NODE":154.9559,"ARG_OF_PERICENTER":274.3111,"MEAN_ANOMALY":85.776,"EPHEMERIS_TYPE":0,"CLASSIFICATION_TYPE":"U","NORAD_CAT_ID":66919,"ELEMENT_SET_NO":999,"REV_AT_EPOCH":1238,"BSTAR":0.00012648057,"MEAN_MOTION_DOT":-6.5e-7,"MEAN_MOTION_DDOT":0},{"OBJECT_NAME":"HULIANWANG DIGUI-110","OBJECT_ID":"2025-285F","EPOCH":"2026-03-06T06:56:02.890176","MEAN_MOTION":13.29330148,"ECCENTRICITY":5.07e-6,"INCLINATION":50.01,"RA_OF_ASC_NODE":154.9386,"ARG_OF_PERICENTER":289.6822,"MEAN_ANOMALY":70.4045,"EPHEMERIS_TYPE":0,"CLASSIFICATION_TYPE":"U","NORAD_CAT_ID":66920,"ELEMENT_SET_NO":999,"REV_AT_EPOCH":1237,"BSTAR":7.559654e-5,"MEAN_MOTION_DOT":-8.9e-7,"MEAN_MOTION_DDOT":0},{"OBJECT_NAME":"HULIANWANG DIGUI-111","OBJECT_ID":"2025-285G","EPOCH":"2026-03-06T06:44:01.025088","MEAN_MOTION":13.29330461,"ECCENTRICITY":6.3e-6,"INCLINATION":50.0117,"RA_OF_ASC_NODE":154.909,"ARG_OF_PERICENTER":319.2413,"MEAN_ANOMALY":40.8454,"EPHEMERIS_TYPE":0,"CLASSIFICATION_TYPE":"U","NORAD_CAT_ID":66921,"ELEMENT_SET_NO":999,"REV_AT_EPOCH":1237,"BSTAR":9.7056887e-5,"MEAN_MOTION_DOT":-7.9e-7,"MEAN_MOTION_DDOT":0},{"OBJECT_NAME":"HULIANWANG DIGUI-112","OBJECT_ID":"2025-285H","EPOCH":"2026-03-06T06:31:59.306880","MEAN_MOTION":13.29331072,"ECCENTRICITY":8.29e-6,"INCLINATION":50.008,"RA_OF_ASC_NODE":154.8376,"ARG_OF_PERICENTER":323.5397,"MEAN_ANOMALY":36.547,"EPHEMERIS_TYPE":0,"CLASSIFICATION_TYPE":"U","NORAD_CAT_ID":66922,"ELEMENT_SET_NO":999,"REV_AT_EPOCH":1237,"BSTAR":0.00016118889,"MEAN_MOTION_DOT":-4.9e-7,"MEAN_MOTION_DDOT":0}]
