HULIANWANG DIGUI-97     
1 66413U 25258B   26065.16807432 -.00000054  00000+0  15000-3 0  9990
2 66413  50.0016 305.3786 0000428 100.0805 260.0116 13.29332494 16029
HULIANWANG DIGUI-98     
1 66414U 25258C   26065.23487306 -.00000053  00000+0  15396-3 0  9990
2 66414  50.0053 305.1076 0000478 111.9856 248.1067 13.29334117 16030
HULIANWANG DIGUI-99     
1 66415U 25258D   26065.20148862 -.00000055  00000+0  14979-3 0  9997
2 66415  50.0051 304.9282 0000362  92.9493 267.1421 13.29331588 16025
HULIANWANG DIGUI-100    
1 66416U 25258E   26065.22652445 -.00000052  00000+0  15524-3 0  9991
2 66416  50.0055 305.0665 0000348  92.3327 267.7585 13.29334633 16044
HULIANWANG DIGUI-101    
1 66417U 25258F   26065.21818540 -.00000058  00000+0  14126-3 0  9994
2 66417  50.0005 304.9642 0000379  87.2811 272.8104 13.29332783 16046
HULIANWANG DIGUI-102    
1 66418U 25258G   26065.19309352 -.00000059  00000+0  14114-3 0  9996
2 66418  50.0019 304.8447 0000385 105.0803 255.0112 13.29334643 16039
HULIANWANG DIGUI-103    
1 66419U 25258H   26065.18476139 -.00000052  00000+0  15570-3 0  9994
2 66419  50.0012 304.7933 0000315  87.7226 272.3683 13.29333683 16038
HULIANWANG DIGUI-104    
1 66420U 25258J   26065.17642315 -.00000058  00000+0  14223-3 0  9996
2 66420  50.0029 304.7725 0000413 109.8769 250.2147 13.29333053 16024
HULIANWANG DIGUI-105    
1 66915U 25285A   26065.25550581 -.00000083  00000+0  88795-4 0  9991
2 66915  50.0045 155.3803 0000088 306.0208  54.0656 13.29330783 12360
HULIANWANG DIGUI-106    
1 66916U 25285B   26063.81896777 -.00628381  00000+0 -14099+1 0  9992
2 66916  50.0043 160.4766 0007099  27.2323 332.8921 13.29477796 12170
HULIANWANG DIGUI-107    
1 66917U 25285C   26065.23880430 -.00000092  00000+0  69674-4 0  9995
2 66917  50.0022 155.2753 0000035 335.5149  24.5721 13.29330457 12366
HULIANWANG DIGUI-108    
1 66918U 25285D   26065.30562174 -.00000076  00000+0  10434-3 0  9997
2 66918  50.0043 154.9794 0000031 323.2437  36.8433 13.29331018 12372
HULIANWANG DIGUI-109    
1 66919U 25285E   26065.29726957 -.00000065  00000+0  12648-3 0  9994
2 66919  50.0067 154.9559 0000010 274.3111  85.7760 13.29330907 12383
HULIANWANG DIGUI-110    
1 66920U 25285F   26065.28892234 -.00000089  00000+0  75597-4 0  9996
2 66920  50.0100 154.9386 0000050 289.6822  70.4045 13.29330148 12376
HULIANWANG DIGUI-111    
1 66921U 25285G   26065.28056742 -.00000079  00000+0  97057-4 0  9997
2 66921  50.0117 154.9090 0000063 319.2413  40.8454 13.29330461 12370
HULIANWANG DIGUI-112    
1 66922U 25285H   26065.27221420 -.00000049  00000+0  16119-3 0  9990
2 66922  50.0080 154.8376 0000082 323.5397  36.5470 13.29331072 12375
